RAVAN                   
1 41849U 16067B   19005.21983470  .00000895  00000-0  80897-4 0  9993
2 41849  97.9230 101.9635 0007884 196.8077 163.2884 14.98053918117377
CELTEE 1                
1 41850U 16067C   19005.23847342 -.00000428  00000-0 -32000-4 0  9991
2 41850  97.9196 101.0491 0008156 204.2595 155.8243 14.96924991117320
OPTICUBE 04             
1 41851U 16067D   19005.22557654 -.00000056  00000-0  39035-6 0  9998
2 41851  97.9195 100.8881 0008077 203.8320 156.2528 14.96750843117316
AEROCUBE 8D             
1 41852U 16067E   19005.08248389  .00000574  00000-0  55652-4 0  9990
2 41852  97.9207 100.5715 0008956 204.2559 155.8241 14.96620086117276
AEROCUBE 8C             
1 41853U 16067F   19004.90086953 -.00000367  00000-0 -26860-4 0  9999
2 41853  97.9204 100.3368 0009280 208.7538 151.3172 14.96583019117248
PROMETHEUS 2-1          
1 41854U 16067G   19005.22346929  .00000275  00000-0  29374-4 0  9997
2 41854  97.9213 100.7317 0009592 205.8397 154.2346 14.96752201117295
PROMETHEUS 2-3          
1 41855U 16067H   19005.22619132  .00000116  00000-0  15449-4 0  9999
2 41855  97.9216 100.7442 0009753 206.6940 153.3780 14.96753153117299
ITF-2                   
1 41932U 98067KU  19003.69298287  .08988731  12526-4  32153-3 0  9994
2 41932  51.6105   8.9412 0001311 269.7383  90.3495 16.44586236112635
INS-1B                  
1 41954U 17008G   19004.66222962  .00000887  00000-0  40111-4 0  9992
2 41954  97.4228  71.7152 0009545  16.1832 343.9708 15.23521669104676
BGUSAT                  
1 41999U 17008BD  19004.66854939  .00001420  00000-0  59031-4 0  9991
2 41999  97.4284  73.4432 0008845  32.1328 328.0447 15.25417170104135
DIDO-2                  
1 42000U 17008BE  19004.65267012  .00000649  00000-0  30060-4 0  9997
2 42000  97.4242  72.2197 0009373  34.4360 325.7482 15.23588469104070
PEASSS                  
1 42015U 17008BV  19004.91305660  .00000786  00000-0  34902-4 0  9995
2 42015  97.4244  73.1923 0007395  41.9762 318.2041 15.24474578104643
AL-FARABI 1             
1 42016U 17008BW  19004.90889969  .00001018  00000-0  43663-4 0  9997
2 42016  97.4256  73.5552 0007233  42.0220 318.1571 15.25006448104781
NAYIF-1 (EO-88)         
1 42017U 17008BX  19004.89972026  .00001010  00000-0  43317-4 0  9991
2 42017  97.4253  73.5547 0007218  42.2826 317.8967 15.25034501104809
HAVELSAT                
1 42700U 98067LH  19005.05772014  .00106138  15351-4  32822-3 0  9992
2 42700  51.6249  30.5029 0004128  11.1836 348.9262 15.91598575 93917
CXBN-2                  
1 42704U 98067LM  19005.08116620  .00092385  14302-4  29744-3 0  9996
2 42704  51.6282  32.2385 0002714  23.3992 336.7137 15.90917134 93819
PHOENIX                 
1 42706U 98067LP  19005.12530367  .00039656  00000-0  20539-3 0  9992
2 42706  51.6287  39.3904 0000683 353.3101   6.7892 15.80635757 93710
X-CUBESAT               
1 42707U 98067LQ  19005.18213111  .00196660  26814-4  42895-3 0  9997
2 42707  51.6240  26.6892 0004051  37.3142 322.8147 15.97824825 93878
QBEE50-LTU-OC           
1 42708U 98067LR  19005.08866551  .00103420  15119-4  32523-3 0  9994
2 42708  51.6252  31.4856 0003379  28.2337 331.8852 15.91294818 93761
ALTAIR PATHFINDER       
1 42711U 98067LS  19005.17702389  .00017399  00000-0  13992-3 0  9993
2 42711  51.6348  56.4115 0002302 235.2454 124.8328 15.71061110 93157
SHARC                   
1 42712U 98067LT  19005.13555917  .00046592  00000-0  27933-3 0  9990
2 42712  51.6332  54.6726 0001715 328.8577  31.2321 15.77311425 93417
ZA-AEROSAT              
1 42713U 98067LU  19005.09013567  .00035528  00000-0  19835-3 0  9995
2 42713  51.6354  44.4562 0000770 298.1483  61.9440 15.79035708 93301
CSUNSAT 1               
1 42715U 98067LW  19005.08528433  .00043586  00000-0  22056-3 0  9991
2 42715  51.6330  42.1677 0001218 278.0254  82.0609 15.81098326 93332
SPACECUBE               
1 42717U 98067LY  19004.32068192  .00088221  14017-4  28676-3 0  9996
2 42717  51.6214  36.0050 0003900   9.7538 350.3543 15.90757118 92716
NJUST-1                 
1 42722U 98067MB  19005.15493877  .00028184  00000-0  17641-3 0  9991
2 42722  51.6406  47.8288 0003108 300.8235 114.0484 15.76586169 92334
LILACSAT-1              
1 42725U 98067ME  19005.12107316  .00065903  00000-0  26922-3 0  9993
2 42725  51.6356  38.4034 0003242 344.6444 114.8490 15.85470268 92363
NSIGHT-1                
1 42726U 98067MF  19004.59683456  .00006863  00000-0  72412-4 0  9994
2 42726  51.6392  69.1987 0004394 271.8161  88.2331 15.65543428 91913
SNUSAT-1                
1 42727U 98067MG  19005.19518649  .00067822  00000-0  28344-3 0  9999
2 42727  51.6303  38.2610 0002425 300.7548  59.3217 15.84988163 92339
POLYITAN-2-SAU          
1 42732U 98067MM  19004.97982201  .00162805  21832-4  36814-3 0  9997
2 42732  51.6267  29.1812 0003003  36.6114 323.5100 15.97248525 92325
SNUSAT-1B               
1 42733U 98067MN  19005.11130290  .00075404  00000-0  27070-3 0  9990
2 42733  51.6265  35.4183 0001734 320.7303  39.3575 15.88067265 92251
BEEAGLESAT              
1 42736U 98067MR  19005.14432653  .00051230  00000-0  24602-3 0  9993
2 42736  51.6310  40.9900 0003611 311.3837  48.6854 15.82153497 92246
UCLSAT                  
1 42765U 17036A   19004.90308102  .00000857  00000-0  40107-4 0  9994
2 42765  97.3758  66.2547 0013325  89.6972 270.5792 15.22336776 85984
LITUANICASAT-2          
1 42768U 17036D   19004.74176640  .00001352  00000-0  61803-4 0  9996
2 42768  97.3783  65.6500 0017019  81.3850 278.9313 15.22143001 85219
AALTO-1                 
1 42775U 17036L   19004.75227667  .00000526  00000-0  26692-4 0  9990
2 42775  97.3747  65.2141 0015789  80.3657 279.9362 15.21064062 85134
URSA MAIOR              
1 42776U 17036M   19004.92361017  .00000564  00000-0  28329-4 0  9999
2 42776  97.3754  65.4806 0015577  79.8779 280.4213 15.21178416 85160
COMPASS 2               
1 42777U 17036N   19004.90896685  .00001104  00000-0  50728-4 0  9991
2 42777  97.3785  66.2362 0014365  82.2972 277.9895 15.22362460 85193
DIAMOND RED             
1 42783U 17036U   19004.89321264  .00000681  00000-0  32914-4 0  9998
2 42783  97.3758  65.9723 0013980  90.1261 270.1577 15.21862853 85189
PEGASUS                 
1 42784U 17036V   19004.83589594  .00000763  00000-0  36260-4 0  9994
2 42784  97.3761  66.0609 0013878  90.1056 270.1770 15.22114777 85188
DIAMOND GREEN           
1 42785U 17036W   19004.82624421  .00000678  00000-0  32780-4 0  9991
2 42785  97.3760  65.9257 0013880  90.8948 269.3878 15.21862708 85165
DIAMOND BLUE            
1 42786U 17036X   19004.89101654  .00000667  00000-0  32298-4 0  9999
2 42786  97.3760  65.9886 0013715  90.8836 269.3972 15.21863740 85259
NUDTSAT                 
1 42787U 17036Y   19004.92753559  .00001472  00000-0  65640-4 0  9993
2 42787  97.3789  66.5829 0013077  82.2252 278.0467 15.22897795 85066
SUCHAI                  
1 42788U 17036Z   19005.14686351  .00000874  00000-0  40693-4 0  9990
2 42788  97.3763  66.5629 0013459  88.8073 271.4706 15.22461682 85317
SKCUBE                  
1 42789U 17036AA  19004.62767874  .00000850  00000-0  39719-4 0  9994
2 42789  97.3762  66.0248 0013322  90.4548 269.8215 15.22389882 85153
VZLUSAT-1               
1 42790U 17036AB  19004.91491886  .00001147  00000-0  51817-4 0  9998
2 42790  97.3771  66.5750 0012910  89.4095 270.8621 15.22905523 85211
ROBUSTA-1B              
1 42792U 17036AD  19004.83899172  .00000864  00000-0  40159-4 0  9993
2 42792  97.3761  66.3389 0012894  90.5634 269.7080 15.22548970 85205
CICERO 6                
1 42793U 17036AE  19004.73102634  .00000603  00000-0  29183-4 0  9998
2 42793  97.3748  66.1357 0012109  92.0112 268.2511 15.22270469 85254
D-SAT                   
1 42794U 17036AF  19004.92152047  .00000090  00000-0  13501-4 0  9990
2 42794  97.5649  56.6504 0125986 331.3077  28.1248 14.90997481 83782
TOKI                    
1 42820U 98067MU  19005.16602152  .00045377  00000-0  23364-3 0  9991
2 42820  51.6323  44.9269 0000819 328.9524  31.1430 15.80702256 85655
MAZAALAI (NUMSAT-1)     
1 42822U 98067MW  19005.19529017  .00045915  00000-0  24517-3 0  9993
2 42822  51.6341  45.8997 0001061 305.0179  55.0723 15.79899527 85620
BRAC ONNESHA            
1 42823U 98067MX  19004.34299857  .00040912  00000-0  21572-3 0  9996
2 42823  51.6314  49.9645 0002173 265.2412  94.8341 15.80227579 85494
NIGERIAEDUSAT-1         
1 42824U 98067MY  19004.34877959  .00038606  00000-0  20958-3 0  9996
2 42824  51.6346  50.8052 0002639 274.1498  85.9202 15.79613093 85476
CORVUS BC2              
1 42846U 17042X   19004.95886535 -.00000023  00000-0  30520-5 0  9992
2 42846  97.5825 265.3432 0008245 240.1960 119.8440 14.91905714 80453
CORVUS BC1              
1 42847U 17042Y   19005.19139196  .00000291  00000-0  34020-4 0  9998
2 42847  97.5826 265.6470 0007930 238.5152 121.5293 14.92005466 80489
SILU-1 (SILKROAD 1)     
1 42903U 17021F   19004.92812466  .00053449  00000-0  20613-3 0  9991
2 42903  42.7704 175.3420 0017234 299.2201 190.9098 15.86216347 81792
MIRATA                  
1 43015U 17073C   19004.85467768  .00001297  00000-0  10737-3 0  9996
2 43015  97.7160 292.5515 0256267 335.1186  23.7843 14.78614994 60937
MAKERSAT 0              
1 43016U 17073D   19004.30599553  .00000936  00000-0  78846-4 0  9990
2 43016  97.7192 292.2012 0258022 337.0603  21.9247 14.78473806 60841
ASTERIA                 
1 43020U 98067NH  19005.23169802  .00013647  00000-0  14492-3 0  9999
2 43020  51.6428  75.7945 0001672 211.7904 148.2990 15.64390084 64063
DELLINGR (RBLE)         
1 43021U 98067NJ  19005.12884866  .00005255  00000-0  69055-4 0  9994
2 43021  51.6401  81.7883 0001969 191.5190 168.5759 15.60355970 63972
OSIRIS-3U               
1 43027U 98067NL  19005.19999580  .00098941  00000-0  43057-3 0  9994
2 43027  51.6358  56.5649 0001987 359.0745   1.0255 15.83994644 64195
